{
  "type": "FeatureCollection",
  "features": [
    {
      "type": "Feature",
      "properties": {
        "norad_id": 66871,
        "name": "STARLINK-36095",
        "group": "last-30-days",
        "lat": -6.271043689990834,
        "lon": -141.79040654932732,
        "alt_km": 415.62887792431684,
        "timestamp": "2025-12-27T19:21:57.544793+00:00",
        "meta_object_name": "STARLINK-36095",
        "meta_object_id": "2025-281Z",
        "meta_epoch": "2025-12-27T12:00:02.000160",
        "meta_mean_motion": 15.50617537,
        "meta_eccentricity": 6.76e-05,
        "meta_inclination": 43.0005,
        "meta_ra_of_asc_node": 33.2328,
        "meta_arg_of_pericenter": 277.4146,
        "meta_mean_anomaly": 356.5583,
        "meta_ephemeris_type": 0,
        "meta_classification_type": "U",
        "meta_norad_cat_id": 66871,
        "meta_element_set_no": 999,
        "meta_rev_at_epoch": 379,
        "meta_bstar": -0.0014488,
        "meta_mean_motion_dot": -0.00084533,
        "meta_mean_motion_ddot": 0,
        "tle_line1": "1 66871U 25281Z   25361.50002315 -.00084533  00000+0 -14488-2 0  9990",
        "tle_line2": "2 66871  43.0005  33.2328 0000676 277.4146 356.5583 15.50617537  3797"
      },
      "geometry": {
        "type": "Point",
        "coordinates": [
          -141.79040654932732,
          -6.271043689990834
        ]
      }
    },
    {
      "type": "Feature",
      "properties": {
        "norad_id": 66872,
        "name": "STARLINK-36082",
        "group": "last-30-days",
        "lat": -7.560300432338203,
        "lon": -140.37928400598994,
        "alt_km": 415.714216766185,
        "timestamp": "2025-12-27T19:21:57.544802+00:00",
        "meta_object_name": "STARLINK-36082",
        "meta_object_id": "2025-281AA",
        "meta_epoch": "2025-12-27T12:00:02.000160",
        "meta_mean_motion": 15.50617781,
        "meta_eccentricity": 9.84e-05,
        "meta_inclination": 43.0005,
        "meta_ra_of_asc_node": 33.2279,
        "meta_arg_of_pericenter": 274.3675,
        "meta_mean_anomaly": 1.515,
        "meta_ephemeris_type": 0,
        "meta_classification_type": "U",
        "meta_norad_cat_id": 66872,
        "meta_element_set_no": 999,
        "meta_rev_at_epoch": 365,
        "meta_bstar": -0.0013827,
        "meta_mean_motion_dot": -0.00080735,
        "meta_mean_motion_ddot": 0,
        "tle_line1": "1 66872U 25281AA  25361.50002315 -.00080735  00000+0 -13827-2 0  9997",
        "tle_line2": "2 66872  43.0005  33.2279 0000984 274.3675   1.5150 15.50617781  3651"
      },
      "geometry": {
        "type": "Point",
        "coordinates": [
          -140.37928400598994,
          -7.560300432338203
        ]
      }
    },
    {
      "type": "Feature",
      "properties": {
        "norad_id": 66873,
        "name": "STARLINK-36128",
        "group": "last-30-days",
        "lat": -11.420243772872233,
        "lon": -136.0625861846965,
        "alt_km": 416.0227799510185,
        "timestamp": "2025-12-27T19:21:57.544811+00:00",
        "meta_object_name": "STARLINK-36128",
        "meta_object_id": "2025-281AB",
        "meta_epoch": "2025-12-27T12:00:02.000160",
        "meta_mean_motion": 15.5062279,
        "meta_eccentricity": 8.24e-05,
        "meta_inclination": 43.0003,
        "meta_ra_of_asc_node": 33.2133,
        "meta_arg_of_pericenter": 265.6902,
        "meta_mean_anomaly": 15.9477,
        "meta_ephemeris_type": 0,
        "meta_classification_type": "U",
        "meta_norad_cat_id": 66873,
        "meta_element_set_no": 999,
        "meta_rev_at_epoch": 379,
        "meta_bstar": -0.0016283,
        "meta_mean_motion_dot": -0.00094862,
        "meta_mean_motion_ddot": 0,
        "tle_line1": "1 66873U 25281AB  25361.50002315 -.00094862  00000+0 -16283-2 0  9993",
        "tle_line2": "2 66873  43.0003  33.2133 0000824 265.6902  15.9477 15.50622790  3790"
      },
      "geometry": {
        "type": "Point",
        "coordinates": [
          -136.0625861846965,
          -11.420243772872233
        ]
      }
    },
    {
      "type": "Feature",
      "properties": {
        "norad_id": 66874,
        "name": "STARLINK-36129",
        "group": "last-30-days",
        "lat": -8.859277671276645,
        "lon": -138.94381276189844,
        "alt_km": 415.9103614345722,
        "timestamp": "2025-12-27T19:21:57.544821+00:00",
        "meta_object_name": "STARLINK-36129",
        "meta_object_id": "2025-281AC",
        "meta_epoch": "2025-12-27T12:00:02.000160",
        "meta_mean_motion": 15.5060985,
        "meta_eccentricity": 9e-05,
        "meta_inclination": 43.0005,
        "meta_ra_of_asc_node": 33.2229,
        "meta_arg_of_pericenter": 278.4202,
        "meta_mean_anomaly": 359.399,
        "meta_ephemeris_type": 0,
        "meta_classification_type": "U",
        "meta_norad_cat_id": 66874,
        "meta_element_set_no": 999,
        "meta_rev_at_epoch": 379,
        "meta_bstar": -0.0013706,
        "meta_mean_motion_dot": -0.00080015,
        "meta_mean_motion_ddot": 0,
        "tle_line1": "1 66874U 25281AC  25361.50002315 -.00080015  00000+0 -13706-2 0  9996",
        "tle_line2": "2 66874  43.0005  33.2229 0000900 278.4202 359.3990 15.50609850  3796"
      },
      "geometry": {
        "type": "Point",
        "coordinates": [
          -138.94381276189844,
          -8.859277671276645
        ]
      }
    },
    {
      "type": "Feature",
      "properties": {
        "norad_id": 66875,
        "name": "STARLINK-36053",
        "group": "last-30-days",
        "lat": -12.687421455507241,
        "lon": -134.60720176434643,
        "alt_km": 416.11262287064346,
        "timestamp": "2025-12-27T19:21:57.544830+00:00",
        "meta_object_name": "STARLINK-36053",
        "meta_object_id": "2025-281AD",
        "meta_epoch": "2025-12-27T12:00:02.000160",
        "meta_mean_motion": 15.50624663,
        "meta_eccentricity": 8.82e-05,
        "meta_inclination": 43.0004,
        "meta_ra_of_asc_node": 33.2079,
        "meta_arg_of_pericenter": 266.066,
        "meta_mean_anomaly": 17.4789,
        "meta_ephemeris_type": 0,
        "meta_classification_type": "U",
        "meta_norad_cat_id": 66875,
        "meta_element_set_no": 999,
        "meta_rev_at_epoch": 379,
        "meta_bstar": -0.0015403,
        "meta_mean_motion_dot": -0.00089816,
        "meta_mean_motion_ddot": 0,
        "tle_line1": "1 66875U 25281AD  25361.50002315 -.00089816  00000+0 -15403-2 0  9991",
        "tle_line2": "2 66875  43.0004  33.2079 0000882 266.0660  17.4789 15.50624663  3796"
      },
      "geometry": {
        "type": "Point",
        "coordinates": [
          -134.60720176434643,
          -12.687421455507241
        ]
      }
    },
    {
      "type": "Feature",
      "properties": {
        "norad_id": 66876,
        "name": "STARLINK-35702",
        "group": "last-30-days",
        "lat": -10.142669983358607,
        "lon": -137.5092973378131,
        "alt_km": 416.0466095828988,
        "timestamp": "2025-12-27T19:21:57.544838+00:00",
        "meta_object_name": "STARLINK-35702",
        "meta_object_id": "2025-281AE",
        "meta_epoch": "2025-12-27T12:00:02.000160",
        "meta_mean_motion": 15.50611781,
        "meta_eccentricity": 8.64e-05,
        "meta_inclination": 43.0005,
        "meta_ra_of_asc_node": 33.2181,
        "meta_arg_of_pericenter": 280.2267,
        "meta_mean_anomaly": 359.5042,
        "meta_ephemeris_type": 0,
        "meta_classification_type": "U",
        "meta_norad_cat_id": 66876,
        "meta_element_set_no": 999,
        "meta_rev_at_epoch": 379,
        "meta_bstar": -0.0013735,
        "meta_mean_motion_dot": -0.00080185,
        "meta_mean_motion_ddot": 0,
        "tle_line1": "1 66876U 25281AE  25361.50002315 -.00080185  00000+0 -13735-2 0  9998",
        "tle_line2": "2 66876  43.0005  33.2181 0000864 280.2267 359.5042 15.50611781  3792"
      },
      "geometry": {
        "type": "Point",
        "coordinates": [
          -137.5092973378131,
          -10.142669983358607
        ]
      }
    },
    {
      "type": "Feature",
      "properties": {
        "norad_id": 66877,
        "name": "ZQ-3 R/B",
        "group": "last-30-days",
        "lat": 48.99542477948736,
        "lon": 47.14446217291347,
        "alt_km": 1045.3675074356315,
        "timestamp": "2025-12-27T19:21:57.544848+00:00",
        "meta_object_name": "ZQ-3 R/B",
        "meta_object_id": "2025-282A",
        "meta_epoch": "2025-12-27T09:23:12.814656",
        "meta_mean_motion": 14.89418194,
        "meta_eccentricity": 0.0655609,
        "meta_inclination": 56.9488,
        "meta_ra_of_asc_node": 0.313,
        "meta_arg_of_pericenter": 245.935,
        "meta_mean_anomaly": 107.1773,
        "meta_ephemeris_type": 0,
        "meta_classification_type": "U",
        "meta_norad_cat_id": 66877,
        "meta_element_set_no": 999,
        "meta_rev_at_epoch": 355,
        "meta_bstar": 0.00016341,
        "meta_mean_motion_dot": 0.01007913,
        "meta_mean_motion_ddot": 8.0175e-06,
        "tle_line1": "1 66877U 25282A   25361.39112054  .01007913  80175-5  16341-3 0  9990",
        "tle_line2": "2 66877  56.9488   0.3130 0655609 245.9350 107.1773 14.89418194  3550"
      },
      "geometry": {
        "type": "Point",
        "coordinates": [
          47.14446217291347,
          48.99542477948736
        ]
      }
    }
  ]
}